{
  "type": "FeatureCollection",
  "features": [
    {
      "type": "Feature",
      "properties": {
        "norad_id": 30050,
        "name": "FENGYUN 1C DEB",
        "group": "fengyun-1c-debris",
        "lat": -59.43442138589056,
        "lon": 120.64038350780338,
        "alt_km": 1030.8761783890877,
        "timestamp": "2025-12-20T03:42:47.666497+00:00",
        "meta_object_name": "FENGYUN 1C DEB",
        "meta_object_id": "1999-025PB",
        "meta_epoch": "2025-12-19T09:47:59.959104",
        "meta_mean_motion": 13.85068053,
        "meta_eccentricity": 0.0171296,
        "meta_inclination": 96.8184,
        "meta_ra_of_asc_node": 311.7847,
        "meta_arg_of_pericenter": 11.2703,
        "meta_mean_anomaly": 110.8044,
        "meta_ephemeris_type": 0,
        "meta_classification_type": "U",
        "meta_norad_cat_id": 30050,
        "meta_element_set_no": 999,
        "meta_rev_at_epoch": 95294,
        "meta_bstar": 0.00094255,
        "meta_mean_motion_dot": 1.17e-05,
        "meta_mean_motion_ddot": 0,
        "tle_line1": "1 30050U 99025PB  25353.40833286  .00001170  00000+0  94255-3 0  9991",
        "tle_line2": "2 30050  96.8184 311.7847 0171296  11.2703 110.8044 13.85068053952943"
      },
      "geometry": {
        "type": "Point",
        "coordinates": [
          120.64038350780338,
          -59.43442138589056
        ]
      }
    },
    {
      "type": "Feature",
      "properties": {
        "norad_id": 30052,
        "name": "FENGYUN 1C DEB",
        "group": "fengyun-1c-debris",
        "lat": -16.08714133263117,
        "lon": -163.16165466304105,
        "alt_km": 788.9340352883964,
        "timestamp": "2025-12-20T03:42:47.666507+00:00",
        "meta_object_name": "FENGYUN 1C DEB",
        "meta_object_id": "1999-025PD",
        "meta_epoch": "2025-12-19T13:32:48.719328",
        "meta_mean_motion": 13.72968091,
        "meta_eccentricity": 0.0289209,
        "meta_inclination": 99.2986,
        "meta_ra_of_asc_node": 18.9725,
        "meta_arg_of_pericenter": 214.3683,
        "meta_mean_anomaly": 306.8018,
        "meta_ephemeris_type": 0,
        "meta_classification_type": "U",
        "meta_norad_cat_id": 30052,
        "meta_element_set_no": 999,
        "meta_rev_at_epoch": 94648,
        "meta_bstar": 0.00037028,
        "meta_mean_motion_dot": 4.17e-06,
        "meta_mean_motion_ddot": 0,
        "tle_line1": "1 30052U 99025PD  25353.56445277  .00000417  00000+0  37028-3 0  9997",
        "tle_line2": "2 30052  99.2986  18.9725 0289209 214.3683 306.8018 13.72968091946487"
      },
      "geometry": {
        "type": "Point",
        "coordinates": [
          -163.16165466304105,
          -16.08714133263117
        ]
      }
    },
    {
      "type": "Feature",
      "properties": {
        "norad_id": 30053,
        "name": "FENGYUN 1C DEB",
        "group": "fengyun-1c-debris",
        "lat": -54.23702360280312,
        "lon": -25.3428204174727,
        "alt_km": 882.4712591624029,
        "timestamp": "2025-12-20T03:42:47.666518+00:00",
        "meta_object_name": "FENGYUN 1C DEB",
        "meta_object_id": "1999-025PE",
        "meta_epoch": "2025-12-19T18:01:12.271008",
        "meta_mean_motion": 13.94174597,
        "meta_eccentricity": 0.0331437,
        "meta_inclination": 98.5755,
        "meta_ra_of_asc_node": 166.3746,
        "meta_arg_of_pericenter": 318.9039,
        "meta_mean_anomaly": 53.9518,
        "meta_ephemeris_type": 0,
        "meta_classification_type": "U",
        "meta_norad_cat_id": 30053,
        "meta_element_set_no": 999,
        "meta_rev_at_epoch": 95084,
        "meta_bstar": 0.0010716,
        "meta_mean_motion_dot": 2.2e-05,
        "meta_mean_motion_ddot": 0,
        "tle_line1": "1 30053U 99025PE  25353.75083647  .00002200  00000+0  10716-2 0  9994",
        "tle_line2": "2 30053  98.5755 166.3746 0331437 318.9039  53.9518 13.94174597950846"
      },
      "geometry": {
        "type": "Point",
        "coordinates": [
          -25.3428204174727,
          -54.23702360280312
        ]
      }
    },
    {
      "type": "Feature",
      "properties": {
        "norad_id": 30054,
        "name": "FENGYUN 1C DEB",
        "group": "fengyun-1c-debris",
        "lat": 51.756425242012526,
        "lon": 14.108103318889707,
        "alt_km": 910.4491469719069,
        "timestamp": "2025-12-20T03:42:47.666528+00:00",
        "meta_object_name": "FENGYUN 1C DEB",
        "meta_object_id": "1999-025PF",
        "meta_epoch": "2025-12-19T01:25:48.226080",
        "meta_mean_motion": 13.69872621,
        "meta_eccentricity": 0.02755853,
        "meta_inclination": 99.371,
        "meta_ra_of_asc_node": 25.1347,
        "meta_arg_of_pericenter": 348.8264,
        "meta_mean_anomaly": 63.264,
        "meta_ephemeris_type": 0,
        "meta_classification_type": "U",
        "meta_norad_cat_id": 30054,
        "meta_element_set_no": 999,
        "meta_rev_at_epoch": 94435,
        "meta_bstar": 0.00045824507,
        "meta_mean_motion_dot": 4.8e-06,
        "meta_mean_motion_ddot": 0,
        "tle_line1": "1 30054U 99025PF  25353.05958595  .00000480  00000+0  45825-3 0  9999",
        "tle_line2": "2 30054  99.3710  25.1347 0275585 348.8264  63.2640 13.69872621944353"
      },
      "geometry": {
        "type": "Point",
        "coordinates": [
          14.108103318889707,
          51.756425242012526
        ]
      }
    },
    {
      "type": "Feature",
      "properties": {
        "norad_id": 30056,
        "name": "FENGYUN 1C DEB",
        "group": "fengyun-1c-debris",
        "lat": 77.75731784142894,
        "lon": 41.280284741304456,
        "alt_km": 978.2298928993168,
        "timestamp": "2025-12-20T03:42:47.666538+00:00",
        "meta_object_name": "FENGYUN 1C DEB",
        "meta_object_id": "1999-025PH",
        "meta_epoch": "2025-12-19T11:29:02.703264",
        "meta_mean_motion": 13.74024901,
        "meta_eccentricity": 0.0299307,
        "meta_inclination": 98.3223,
        "meta_ra_of_asc_node": 178.2702,
        "meta_arg_of_pericenter": 192.6309,
        "meta_mean_anomaly": 166.7224,
        "meta_ephemeris_type": 0,
        "meta_classification_type": "U",
        "meta_norad_cat_id": 30056,
        "meta_element_set_no": 999,
        "meta_rev_at_epoch": 94068,
        "meta_bstar": 0.0017508,
        "meta_mean_motion_dot": 2.238e-05,
        "meta_mean_motion_ddot": 0,
        "tle_line1": "1 30056U 99025PH  25353.47850351  .00002238  00000+0  17508-2 0  9997",
        "tle_line2": "2 30056  98.3223 178.2702 0299307 192.6309 166.7224 13.74024901940686"
      },
      "geometry": {
        "type": "Point",
        "coordinates": [
          41.280284741304456,
          77.75731784142894
        ]
      }
    },
    {
      "type": "Feature",
      "properties": {
        "norad_id": 30057,
        "name": "FENGYUN 1C DEB",
        "group": "fengyun-1c-debris",
        "lat": 41.27336926149395,
        "lon": -109.9265610647002,
        "alt_km": 829.245818009389,
        "timestamp": "2025-12-20T03:42:47.666549+00:00",
        "meta_object_name": "FENGYUN 1C DEB",
        "meta_object_id": "1999-025PJ",
        "meta_epoch": "2025-12-19T04:11:01.610880",
        "meta_mean_motion": 13.57137428,
        "meta_eccentricity": 0.02922009,
        "meta_inclination": 98.8832,
        "meta_ra_of_asc_node": 61.2972,
        "meta_arg_of_pericenter": 129.9286,
        "meta_mean_anomaly": 260.1206,
        "meta_ephemeris_type": 0,
        "meta_classification_type": "U",
        "meta_norad_cat_id": 30057,
        "meta_element_set_no": 999,
        "meta_rev_at_epoch": 93323,
        "meta_bstar": 0.00095979801,
        "meta_mean_motion_dot": 8.66e-06,
        "meta_mean_motion_ddot": 0,
        "tle_line1": "1 30057U 99025PJ  25353.17432420  .00000866  00000+0  95980-3 0  9994",
        "tle_line2": "2 30057  98.8832  61.2972 0292200 129.9286 260.1206 13.57137428933232"
      },
      "geometry": {
        "type": "Point",
        "coordinates": [
          -109.9265610647002,
          41.27336926149395
        ]
      }
    },
    {
      "type": "Feature",
      "properties": {
        "norad_id": 30058,
        "name": "FENGYUN 1C DEB",
        "group": "fengyun-1c-debris",
        "lat": -33.4859426834093,
        "lon": 4.62058127988649,
        "alt_km": 1314.6419261339852,
        "timestamp": "2025-12-20T03:42:47.666559+00:00",
        "meta_object_name": "FENGYUN 1C DEB",
        "meta_object_id": "1999-025PK",
        "meta_epoch": "2025-12-18T21:56:33.148320",
        "meta_mean_motion": 13.48243907,
        "meta_eccentricity": 0.03157006,
        "meta_inclination": 99.6499,
        "meta_ra_of_asc_node": 356.9585,
        "meta_arg_of_pericenter": 137.0541,
        "meta_mean_anomaly": 292.1393,
        "meta_ephemeris_type": 0,
        "meta_classification_type": "U",
        "meta_norad_cat_id": 30058,
        "meta_element_set_no": 999,
        "meta_rev_at_epoch": 92931,
        "meta_bstar": 0.00056181101,
        "meta_mean_motion_dot": 4.31e-06,
        "meta_mean_motion_ddot": 0,
        "tle_line1": "1 30058U 99025PK  25352.91427255  .00000431  00000+0  56181-3 0  9994",
        "tle_line2": "2 30058  99.6499 356.9585 0315700 137.0541 292.1393 13.48243907929316"
      },
      "geometry": {
        "type": "Point",
        "coordinates": [
          4.62058127988649,
          -33.4859426834093
        ]
      }
    }
  ]
}